STARLINK-3334           
1 50823U 22001W   25270.16335002  .00000312  00000+0  37681-4 0  9993
2 50823  53.2164 183.2159 0001357  83.4439 276.6708 15.08844268205725
STARLINK-3332           
1 50825U 22001Y   25270.20015459  .00000932  00000+0  76669-4 0  9998
2 50825  53.2180 183.0553 0001533 103.8212 256.2951 15.08839355205728
STARLINK-3329           
1 50827U 22001AA  25270.07868865  .00002950  00000+0  20325-3 0  9991
2 50827  53.2191 183.6021 0001649  93.1994 266.9187 15.08861473205707
STARLINK-3290           
1 50828U 22001AB  25270.19742144  .00005511  00000+0  36398-3 0  9999
2 50828  53.2172 182.9559 0001718  87.4270 272.6919 15.08851331205579
STARLINK-3294           
1 50829U 22001AC  25270.15231302 -.00000415  00000+0 -80068-5 0  9990
2 50829  53.2178 183.2655 0001443  86.4111 273.7047 15.08848446205718
STARLINK-3278           
1 50830U 22001AD  25270.16979253  .00000567  00000+0  53716-4 0  9992
2 50830  53.2181 193.1897 0001420  83.7281 276.3873 15.08844404205586
STARLINK-3299           
1 50831U 22001AE  25270.18176348  .00000001  00000+0  18143-4 0  9997
2 50831  53.2173 183.2019 0001472 119.3530 240.7609 15.08834135205722
STARLINK-3328           
1 50832U 22001AF  25270.17075911 -.00000008  00000+0  17573-4 0  9995
2 50832  53.2182 193.2338 0001344  82.5619 277.5526 15.08838172205580
STARLINK-3331           
1 50834U 22001AH  25270.22131691 -.00000555  00000+0 -16799-4 0  9998
2 50834  53.2175 192.9646 0001456 108.2752 251.8399 15.08832409205580
STARLINK-3310           
1 50835U 22001AJ  25270.15876973  .00001387  00000+0  10521-3 0  9998
2 50835  53.2185 193.3575 0001457  93.7621 266.3538 15.08836662205572
STARLINK-3330           
1 50836U 22001AK  25270.20384308  .00000770  00000+0  66451-4 0  9990
2 50836  53.2165 192.8153 0001631 115.5582 244.5579 15.08839238205485
STARLINK-3318           
1 50837U 22001AL  25269.98671332  .00001366  00000+0  10388-3 0  9999
2 50837  53.2169 184.0100 0001393 103.0744 257.0404 15.08839555205693
STARLINK-3322           
1 50838U 22001AM  25270.25002315  .00095930  00000+0  74388-3 0  9991
2 50838  53.1836 108.1355 0007933 121.6891 330.3226 15.71044230  5804
STARLINK-3320           
1 50839U 22001AN  25270.20290572  .00004782  00000+0  31821-3 0  9991
2 50839  53.2173 193.0398 0002018  58.0133 302.1055 15.08857581205575
STARLINK-3295           
1 50840U 22001AP  25270.19922979  .00001488  00000+0  11155-3 0  9992
2 50840  53.2172 193.0552 0001428 103.2566 256.8586 15.08846137205574
STARLINK-3300           
1 50841U 22001AQ  25270.21027205  .00003656  00000+0  24775-3 0  9995
2 50841  53.2174 193.0079 0001382 109.7938 250.3203 15.08825410205581
