[{"OBJECT_NAME":"STARLINK-3334","OBJECT_ID":"2022-001W","EPOCH":"2025-09-27T03:55:13.441728","MEAN_MOTION":15.08844268,"ECCENTRICITY":0.00013574,"INCLINATION":53.2164,"RA_OF_ASC_NODE":183.2159,"ARG_OF_PERICENTER":83.4439,"MEAN_ANOMALY":276.6708,"EPHEMERIS_TYPE":0,"CLASSIFICATION_TYPE":"U","NORAD_CAT_ID":50823,"ELEMENT_SET_NO":999,"REV_AT_EPOCH":20572,"BSTAR":3.7680778e-5,"MEAN_MOTION_DOT":3.12e-6,"MEAN_MOTION_DDOT":0},{"OBJECT_NAME":"STARLINK-3332","OBJECT_ID":"2022-001Y","EPOCH":"2025-09-27T04:48:13.356576","MEAN_MOTION":15.08839355,"ECCENTRICITY":0.00015333,"INCLINATION":53.218,"RA_OF_ASC_NODE":183.0553,"ARG_OF_PERICENTER":103.8212,"MEAN_ANOMALY":256.2951,"EPHEMERIS_TYPE":0,"CLASSIFICATION_TYPE":"U","NORAD_CAT_ID":50825,"ELEMENT_SET_NO":999,"REV_AT_EPOCH":20572,"BSTAR":7.6668722e-5,"MEAN_MOTION_DOT":9.32e-6,"MEAN_MOTION_DDOT":0},{"OBJECT_NAME":"STARLINK-3329","OBJECT_ID":"2022-001AA","EPOCH":"2025-09-27T01:53:18.699360","MEAN_MOTION":15.08861473,"ECCENTRICITY":0.0001649,"INCLINATION":53.2191,"RA_OF_ASC_NODE":183.6021,"ARG_OF_PERICENTER":93.1994,"MEAN_ANOMALY":266.9187,"EPHEMERIS_TYPE":0,"CLASSIFICATION_TYPE":"U","NORAD_CAT_ID":50827,"ELEMENT_SET_NO":999,"REV_AT_EPOCH":20570,"BSTAR":0.00020325427,"MEAN_MOTION_DOT":2.95e-5,"MEAN_MOTION_DDOT":0},{"OBJECT_NAME":"STARLINK-3290","OBJECT_ID":"2022-001AB","EPOCH":"2025-09-27T04:44:17.212416","MEAN_MOTION":15.08851331,"ECCENTRICITY":0.00017182,"INCLINATION":53.2172,"RA_OF_ASC_NODE":182.9559,"ARG_OF_PERICENTER":87.427,"MEAN_ANOMALY":272.6919,"EPHEMERIS_TYPE":0,"CLASSIFICATION_TYPE":"U","NORAD_CAT_ID":50828,"ELEMENT_SET_NO":999,"REV_AT_EPOCH":20557,"BSTAR":0.00036398354,"MEAN_MOTION_DOT":5.511e-5,"MEAN_MOTION_DDOT":0},{"OBJECT_NAME":"STARLINK-3294","OBJECT_ID":"2022-001AC","EPOCH":"2025-09-27T03:39:19.844928","MEAN_MOTION":15.08848446,"ECCENTRICITY":0.00014437,"INCLINATION":53.2178,"RA_OF_ASC_NODE":183.2655,"ARG_OF_PERICENTER":86.4111,"MEAN_ANOMALY":273.7047,"EPHEMERIS_TYPE":0,"CLASSIFICATION_TYPE":"U","NORAD_CAT_ID":50829,"ELEMENT_SET_NO":999,"REV_AT_EPOCH":20571,"BSTAR":-8.006803e-6,"MEAN_MOTION_DOT":-4.15e-6,"MEAN_MOTION_DDOT":0},{"OBJECT_NAME":"STARLINK-3278","OBJECT_ID":"2022-001AD","EPOCH":"2025-09-27T04:04:30.074592","MEAN_MOTION":15.08844404,"ECCENTRICITY":0.000142,"INCLINATION":53.2181,"RA_OF_ASC_NODE":193.1897,"ARG_OF_PERICENTER":83.7281,"MEAN_ANOMALY":276.3873,"EPHEMERIS_TYPE":0,"CLASSIFICATION_TYPE":"U","NORAD_CAT_ID":50830,"ELEMENT_SET_NO":999,"REV_AT_EPOCH":20558,"BSTAR":5.3716256e-5,"MEAN_MOTION_DOT":5.67e-6,"MEAN_MOTION_DDOT":0},{"OBJECT_NAME":"STARLINK-3299","OBJECT_ID":"2022-001AE","EPOCH":"2025-09-27T04:21:44.364672","MEAN_MOTION":15.08834135,"ECCENTRICITY":0.00014729,"INCLINATION":53.2173,"RA_OF_ASC_NODE":183.2019,"ARG_OF_PERICENTER":119.353,"MEAN_ANOMALY":240.7609,"EPHEMERIS_TYPE":0,"CLASSIFICATION_TYPE":"U","NORAD_CAT_ID":50831,"ELEMENT_SET_NO":999,"REV_AT_EPOCH":20572,"BSTAR":1.8143257e-5,"MEAN_MOTION_DOT":1.0e-8,"MEAN_MOTION_DDOT":0},{"OBJECT_NAME":"STARLINK-3328","OBJECT_ID":"2022-001AF","EPOCH":"2025-09-27T04:05:53.587104","MEAN_MOTION":15.08838172,"ECCENTRICITY":0.00013448,"INCLINATION":53.2182,"RA_OF_ASC_NODE":193.2338,"ARG_OF_PERICENTER":82.5619,"MEAN_ANOMALY":277.5526,"EPHEMERIS_TYPE":0,"CLASSIFICATION_TYPE":"U","NORAD_CAT_ID":50832,"ELEMENT_SET_NO":999,"REV_AT_EPOCH":20558,"BSTAR":1.7572903e-5,"MEAN_MOTION_DOT":-8.0e-8,"MEAN_MOTION_DDOT":0},{"OBJECT_NAME":"STARLINK-3331","OBJECT_ID":"2022-001AH","EPOCH":"2025-09-27T05:18:41.781024","MEAN_MOTION":15.08832409,"ECCENTRICITY":0.00014562,"INCLINATION":53.2175,"RA_OF_ASC_NODE":192.9646,"ARG_OF_PERICENTER":108.2752,"MEAN_ANOMALY":251.8399,"EPHEMERIS_TYPE":0,"CLASSIFICATION_TYPE":"U","NORAD_CAT_ID":50834,"ELEMENT_SET_NO":999,"REV_AT_EPOCH":20558,"BSTAR":-1.6799249e-5,"MEAN_MOTION_DOT":-5.55e-6,"MEAN_MOTION_DDOT":0},{"OBJECT_NAME":"STARLINK-3310","OBJECT_ID":"2022-001AJ","EPOCH":"2025-09-27T03:48:37.704672","MEAN_MOTION":15.08836662,"ECCENTRICITY":0.0001457,"INCLINATION":53.2185,"RA_OF_ASC_NODE":193.3575,"ARG_OF_PERICENTER":93.7621,"MEAN_ANOMALY":266.3538,"EPHEMERIS_TYPE":0,"CLASSIFICATION_TYPE":"U","NORAD_CAT_ID":50835,"ELEMENT_SET_NO":999,"REV_AT_EPOCH":20557,"BSTAR":0.00010521198,"MEAN_MOTION_DOT":1.387e-5,"MEAN_MOTION_DDOT":0},{"OBJECT_NAME":"STARLINK-3330","OBJECT_ID":"2022-001AK","EPOCH":"2025-09-27T04:53:32.042112","MEAN_MOTION":15.08839238,"ECCENTRICITY":0.00016316,"INCLINATION":53.2165,"RA_OF_ASC_NODE":192.8153,"ARG_OF_PERICENTER":115.5582,"MEAN_ANOMALY":244.5579,"EPHEMERIS_TYPE":0,"CLASSIFICATION_TYPE":"U","NORAD_CAT_ID":50836,"ELEMENT_SET_NO":999,"REV_AT_EPOCH":20548,"BSTAR":6.6451314e-5,"MEAN_MOTION_DOT":7.7e-6,"MEAN_MOTION_DDOT":0},{"OBJECT_NAME":"STARLINK-3318","OBJECT_ID":"2022-001AL","EPOCH":"2025-09-26T23:40:52.030848","MEAN_MOTION":15.08839555,"ECCENTRICITY":0.00013939,"INCLINATION":53.2169,"RA_OF_ASC_NODE":184.01,"ARG_OF_PERICENTER":103.0744,"MEAN_ANOMALY":257.0404,"EPHEMERIS_TYPE":0,"CLASSIFICATION_TYPE":"U","NORAD_CAT_ID":50837,"ELEMENT_SET_NO":999,"REV_AT_EPOCH":20569,"BSTAR":0.0001038805,"MEAN_MOTION_DOT":1.366e-5,"MEAN_MOTION_DDOT":0},{"OBJECT_NAME":"STARLINK-3322","OBJECT_ID":"2022-001AM","EPOCH":"2025-09-27T06:00:02.000160","MEAN_MOTION":15.7104423,"ECCENTRICITY":0.00079338,"INCLINATION":53.1836,"RA_OF_ASC_NODE":108.1355,"ARG_OF_PERICENTER":121.6891,"MEAN_ANOMALY":330.3226,"EPHEMERIS_TYPE":0,"CLASSIFICATION_TYPE":"U","NORAD_CAT_ID":50838,"ELEMENT_SET_NO":999,"REV_AT_EPOCH":580,"BSTAR":0.0007438838,"MEAN_MOTION_DOT":0.0009593,"MEAN_MOTION_DDOT":0},{"OBJECT_NAME":"STARLINK-3320","OBJECT_ID":"2022-001AN","EPOCH":"2025-09-27T04:52:11.054208","MEAN_MOTION":15.08857581,"ECCENTRICITY":0.0002018,"INCLINATION":53.2173,"RA_OF_ASC_NODE":193.0398,"ARG_OF_PERICENTER":58.0133,"MEAN_ANOMALY":302.1055,"EPHEMERIS_TYPE":0,"CLASSIFICATION_TYPE":"U","NORAD_CAT_ID":50839,"ELEMENT_SET_NO":999,"REV_AT_EPOCH":20557,"BSTAR":0.00031820912,"MEAN_MOTION_DOT":4.782e-5,"MEAN_MOTION_DDOT":0},{"OBJECT_NAME":"STARLINK-3295","OBJECT_ID":"2022-001AP","EPOCH":"2025-09-27T04:46:53.453856","MEAN_MOTION":15.08846137,"ECCENTRICITY":0.00014283,"INCLINATION":53.2172,"RA_OF_ASC_NODE":193.0552,"ARG_OF_PERICENTER":103.2566,"MEAN_ANOMALY":256.8586,"EPHEMERIS_TYPE":0,"CLASSIFICATION_TYPE":"U","NORAD_CAT_ID":50840,"ELEMENT_SET_NO":999,"REV_AT_EPOCH":20557,"BSTAR":0.00011155298,"MEAN_MOTION_DOT":1.488e-5,"MEAN_MOTION_DDOT":0},{"OBJECT_NAME":"STARLINK-3300","OBJECT_ID":"2022-001AQ","EPOCH":"2025-09-27T05:02:47.505120","MEAN_MOTION":15.0882541,"ECCENTRICITY":0.00013821,"INCLINATION":53.2174,"RA_OF_ASC_NODE":193.0079,"ARG_OF_PERICENTER":109.7938,"MEAN_ANOMALY":250.3203,"EPHEMERIS_TYPE":0,"CLASSIFICATION_TYPE":"U","NORAD_CAT_ID":50841,"ELEMENT_SET_NO":999,"REV_AT_EPOCH":20558,"BSTAR":0.00024774648,"MEAN_MOTION_DOT":3.656e-5,"MEAN_MOTION_DDOT":0}]
